CUTE-1 (CO-55)          
1 27844U 03031E   18307.54624926  .00000056  00000-0  45022-4 0  9997
2 27844  98.6874 314.1497 0009293 334.2542  25.8172 14.22141689796009
CUBESAT XI-IV (CO-57)   
1 27848U 03031J   18306.98152184  .00000043  00000-0  39414-4 0  9994
2 27848  98.6957 314.0354 0009415 347.3508  12.7432 14.21742149795784
CUBESAT XI 5            
1 28895U 05043F   18307.40287138  .00000110  00000-0  30039-4 0  9997
2 28895  97.9283  93.3858 0016557 354.1805   5.9202 14.63597132694242
CUTE-1.7+APD II (CO-65) 
1 32785U 08021C   18306.89530074  .00000192  00000-0  26465-4 0  9999
2 32785  97.5472 312.4525 0011788 302.2761  57.7314 14.88198498569804
AAUSAT-II               
1 32788U 08021F   18307.02389262  .00000479  00000-0  49396-4 0  9995
2 32788  97.5129 327.6888 0010483 239.4622 120.5564 14.94498334570913
DELFI-C3 (DO-64)        
1 32789U 08021G   18307.22044850  .00001305  00000-0  92542-4 0  9999
2 32789  97.4968 358.4159 0012636 176.4594 183.6725 15.06417748572710
SEEDS II (CO-66)        
1 32791U 08021J   18306.82348301  .00000201  00000-0  25864-4 0  9992
2 32791  97.5326 318.0319 0011848 277.9544  82.0330 14.90661072570083
SWISSCUBE               
1 35932U 09051B   18306.89255399  .00000121  00000-0  38478-4 0  9993
2 35932  98.5632 101.5440 0008404 138.8528 221.3303 14.56211029483586
BEESAT                  
1 35933U 09051C   18307.11629829  .00000111  00000-0  36080-4 0  9999
2 35933  98.5667 103.4075 0006455 148.2805 211.8782 14.56309060483765
ITUPSAT 1               
1 35935U 09051E   18307.18108890  .00000088  00000-0  31361-4 0  9998
2 35935  98.5778 103.7236 0008798 146.6795 213.4957 14.55479833483547
TISAT 1                 
1 36799U 10035E   18307.38239241  .00000212  00000-0  27551-4 0  9993
2 36799  98.1263  87.4682 0013608 110.2371 250.0310 14.90921436450899
M-CUBED & EXP-1 PRIME   
1 37855U 11061F   18307.32049433  .00000741  00000-0  45536-4 0  9993
2 37855 101.7207  81.0562 0175285  30.3534 330.7689 15.04844371382574
STRAND-1                
1 39090U 13009E   18307.55884571  .00000040  00000-0  29409-4 0  9998
2 39090  98.5067 152.0420 0008151 240.8800 119.1570 14.35056561297816
AIST-2 (RS-43)          
1 39133U 13015D   18307.57807219  .00000005  00000-0  12618-4 0  9994
2 39133  64.8736 131.0909 0007941 211.7832 221.0254 15.04628636304186
SOMP                    
1 39134U 13015E   18306.75556993  .00000908  00000-0  51896-4 0  9997
2 39134  64.8651  38.5445 0006959 315.8537  44.2034 15.19542527305570
BEESAT-3                
1 39135U 13015F   18306.67851880  .00000950  00000-0  57732-4 0  9994
2 39135  64.8702  53.9707 0009137 248.9201 111.0948 15.16978725305268
BEESAT-2                
1 39136U 13015G   18307.55489438  .00000689  00000-0  45233-4 0  9991
2 39136  64.8707  54.3147 0010950 245.4541 114.5444 15.16432028305722
NEE-01 PEGASUS          
1 39151U 13018B   18307.51421558  .00000126  00000-0  23670-4 0  9993
2 39151  97.9757  40.6044 0016379 213.7333 146.2838 14.79958591298123
ESTCUBE 1               
1 39161U 13021C   18307.43682455  .00000139  00000-0  29896-4 0  9994
2 39161  98.0018  31.1430 0009060 340.7351  19.3516 14.72120749294937
POPACS 1                
1 39268U 13055D   18307.04187305  .00002841  00000-0  78854-4 0  9990
2 39268  81.0047 200.5112 0633148 176.5941 183.9891 14.35382597264366
POPACS 2                
1 39269U 13055E   18307.46648398  .00001265  00000-0  36891-4 0  9995
2 39269  81.0172 224.9072 0687412 239.8121 113.3270 14.22929744262944
POPACS 3                
1 39270U 13055F   18307.13445169  .00001326  00000-0  42092-4 0  9990
2 39270  81.0185 239.1665 0715781 281.6501  70.5243 14.15210081262004
ZACUBE-1 (TSHEPISOSAT)  
1 39417U 13066B   18307.02533978  .00000205  00000-0  32117-4 0  9991
2 39417  97.5776 328.1801 0060347  61.0939 299.6310 14.81002794267346
WNISAT-1                
1 39423U 13066H   18307.45280829  .00000103  00000-0  30508-4 0  9998
2 39423  97.7437 260.9078 0174863 302.8328  55.6120 14.52992198262455
GOMX 1                  
1 39430U 13066Q   18307.37525175  .00000133  00000-0  33595-4 0  9995
2 39430  97.7146 274.3461 0149942 251.2699 107.2179 14.59149419263459
CUBEBUG-2 (LO-74)       
1 39440U 13066AA  18306.93860215  .00000200  00000-0  34615-4 0  9993
2 39440  97.6000 313.9225 0081843 104.6486 256.3816 14.75742468265183
NEE-02 KRYSAOR          
1 39441U 13066AB  18306.90595574  .00000138  00000-0  26533-4 0  9994
2 39441  97.6015 311.9155 0083261 110.3973 250.6204 14.74827130265065
FUNCUBE-1 (AO-73)       
1 39444U 13066AE  18307.55503677  .00000238  00000-0  35598-4 0  9994
2 39444  97.5777 330.3790 0059342  54.3812 306.2909 14.81800725266299
UWE-3                   
1 39446U 13066AG  18306.92670097  .00000218  00000-0  35475-4 0  9999
2 39446  97.5873 320.5568 0071630  83.4539 277.4821 14.78277076265020
BRITE-TORONTO           
1 40020U 14033L   18307.54586180  .00000070  00000-0  20250-4 0  9993
2 40020  97.7671 158.6620 0087925 159.9915 200.4773 14.66529030234012
DUCHIFAT-1              
1 40021U 14033M   18306.83423295  .00000286  00000-0  35176-4 0  9994
2 40021  97.9151 225.7904 0014418  81.7694 278.5158 14.90429485237603
NANOSATC-BR1            
1 40024U 14033Q   18307.41483304  .00000233  00000-0  30277-4 0  9998
2 40024  97.9071 224.3277 0013697  82.6453 277.6320 14.89675234237600
QB50P1                  
1 40025U 14033R   18306.80421341  .00000214  00000-0  28867-4 0  9995
2 40025  97.9018 221.8845 0013918  89.0428 271.2383 14.88803102236901
QB50P2                  
1 40032U 14033Y   18306.80244736  .00000207  00000-0  28406-4 0  9995
2 40032  97.8962 220.3943 0013317  85.3875 274.8862 14.88343999237340
PERSEUS-M2              
1 40037U 14033AD  18307.49963314  .00000054  00000-0  12318-4 0  9991
2 40037  97.8929 218.1708 0015854  92.7029 267.6001 14.86396859237226
PERSEUS-M1              
1 40039U 14033AF  18307.22340595  .00000062  00000-0  13376-4 0  9998
2 40039  97.8922 217.1680 0015713  90.7563 269.5453 14.86018123237120
POLYITAN-1              
1 40042U 14033AJ  18307.36054563  .00000261  00000-0  34074-4 0  9993
2 40042  97.9096 222.6324 0016162  77.3523 282.9500 14.88493771237411
TIGRISAT                
1 40043U 14033AK  18306.70624497  .00000123  00000-0  25533-4 0  9997
2 40043  97.7863 178.8057 0061308 111.8124 248.9622 14.74189740235014
AEROCUBE 6A             
1 40045U 14033AM  18307.22222830  .00000288  00000-0  48687-4 0  9999
2 40045  97.8053 182.1215 0059129 103.8171 256.9628 14.75239118235025
AEROCUBE 6B             
1 40046U 14033AN  18306.61404435  .00000264  00000-0  45397-4 0  9994
2 40046  97.8009 181.3186 0058483 105.2195 255.5491 14.75224586235070
UKUBE-1                 
1 40074U 14037F   18307.46802076  .00000283  00000-0  41270-4 0  9993
2 40074  98.4062  91.9391 0003603 223.8071 136.2839 14.83903923233959
BRITE-PL 2              
1 40119U 14049B   18307.21239126  .00000068  00000-0  14605-4 0  9992
2 40119  97.9150  34.7761 0016262 241.7277 118.2296 14.84334479227921
FIREBIRD 4              
1 40378U 15003C   18307.50198554  .00001181  00000-0  51303-4 0  9994
2 40378  99.0845 236.9318 0130815 126.6637 234.6700 15.17773658207450
GRIFEX                  
1 40379U 15003D   18307.47902115  .00000756  00000-0  36959-4 0  9994
2 40379  99.0844 232.3227 0137926 141.4460 219.6716 15.14739637207184
EXOCUBE                 
1 40380U 15003E   18306.84149241  .00000617  00000-0  32332-4 0  9996
2 40380  99.0876 229.0452 0142422 152.0813 208.8149 15.12863230206916
TIANWANG 1C (TW-1C)     
1 40926U 15051B   18307.38974455  .00007464  00000-0  12847-3 0  9993
2 40926  97.1702 349.1650 0011289 126.0103   1.6881 15.51310732174870
TIANWANG 1A (TW-1A)     
1 40928U 15051D   18307.47668314  .00002207  00000-0  58339-4 0  9996
2 40928  97.1733 338.6716 0011764 168.3285 302.1566 15.39421788174206
EXACTVIEW 9             
1 40936U 15052G   18305.48790398  .00000770  00000-0  18700-4 0  9994
2 40936   6.0034 255.1464 0010236 141.6437 218.4419 14.76429541167299
ATHENOXAT 1             
1 41168U 15077C   18307.04606481  .00001823  00000-0  62330-4 0  9990
2 41168  14.9843  83.7559 0011764 171.0604 145.3834 15.13101332159436
GALASSIA                
1 41170U 15077E   18306.70328604  .00001678  00000-0  53599-4 0  9998
2 41170  14.9888  80.2510 0013033 187.3821 172.6309 15.13455981159442
VELOX 2                 
1 41171U 15077F   18306.69458750  .00001349  00000-0  39868-4 0  9991
2 41171  14.9909 106.1084 0008811 118.3324 241.7885 15.10867762159214
HORYU-IV                
1 41340U 16012D   18306.76957153  .00000401  00000-0  23887-4 0  9990
2 41340  31.0038 145.0384 0013926  27.0144 333.1215 15.01094460148734
E-ST@R-II               
1 41459U 16025D   18307.43857569  .00000661  00000-0  38317-4 0  9992
2 41459  98.1226  17.4381 0170959  41.8742 319.5403 15.04804032138367
AAUSAT 4                
1 41460U 16025E   18307.40997805  .00001852  00000-0  98049-4 0  9990
2 41460  98.1158  18.1483 0160661  36.7969 324.4163 15.06405681138443
DIWATA-1                
1 41463U 98067HT  18307.49842863  .00011122  00000-0  81950-4 0  9995
2 41463  51.6393 339.4673 0001111  16.7057 132.9268 15.73622766143916
BEESAT-4                
1 41619U 16040W   18307.42022406  .00001047  00000-0  48105-4 0  9995
2 41619  97.3996   8.5497 0013198 101.1232 259.1489 15.22504204119274
CANX-7                  
1 41788U 16059F   18307.42359187  .00005424  00000-0  88671-3 0  9995
2 41788  98.2206  14.9414 0026314  16.3642 343.8413 14.71038278112560
ALSAT 1N                
1 41789U 16059G   18307.36884371  .00000057  00000-0  19901-4 0  9995
2 41789  98.1038   8.0709 0028654  12.4745 347.7161 14.64191140112387
RAVAN                   
1 41849U 16067B   18306.82991190 -.00000123  00000-0 -52386-5 0  9990
2 41849  97.9247  37.6379 0009733  64.9882 295.2349 14.97970760107888
